NORAD_CAT_ID,OBJECT_NAME,OBJECT_TYPE,EPOCH,MEAN_MOTION,ECCENTRICITY,INCLINATION,RA_OF_ASC_NODE,ARG_OF_PERICENTER,MEAN_ANOMALY,BSTAR,MEAN_MOTION_DOT,MEAN_MOTION_DDOT,TLE_LINE0,TLE_LINE1,TLE_LINE2,SEMIMAJOR_AXIS,PERIOD,APOGEE,PERIGEE,DECAYED
53002.0,STARLINK-4121,PAYLOAD,2022-07-12 16:00:00,15.879590099999998,0.0033098,53.2174,354.5897,54.7546,170.7306,-0.0041021999999999,-0.01189695,0.00040367,0 STARLINK-4121,1 53002U 22076S   22193.66667824 -.01189695  40367-3 -41022-2 0  9994,2 53002  53.2174 354.5897 0033098  54.7546 170.7306 15.87959010  1302,6686.143,90.682,330.1380000000001,285.878,0.0
53002.0,STARLINK-4121,PAYLOAD,2022-07-13 04:00:00,15.86819944,0.0027292,53.2175,352.0621,56.1434,148.2816,-0.0044093,-0.01189623,0.00039944,0 STARLINK-4121,1 53002U 22076S   22194.16667824 -.01189623  39944-3 -44093-2 0  9991,2 53002  53.2175 352.0621 0027292  56.1434 148.2816 15.86819944  1375,6689.342,90.748,329.464,292.951,0.0
53002.0,STARLINK-4121,PAYLOAD,2022-07-13 14:00:01,15.85845321,0.0023495,53.2177,349.9602,54.8636,10.4506,-0.0044553999999999,-0.01136903,0.0003646,0 STARLINK-4121,1 53002U 22076S   22194.58334491 -.01136903  36460-3 -44554-2 0  9993,2 53002  53.2177 349.9602 0023495  54.8636  10.4506 15.85845321  1307,6692.083000000001,90.803,329.671,298.225,0.0
53002.0,STARLINK-4121,PAYLOAD,2022-07-13 22:00:00,15.85096779,0.0020511,53.2173,348.2815,53.4873,115.5001,-0.004738,-0.0104046,0.0,0 STARLINK-4121,1 53002U 22076S   22194.91667824 -.01040460  00000-0 -47380-2 0  9999,2 53002  53.2173 348.2815 0020511  53.4873 115.5001 15.85096779  1497,6694.189,90.846,329.785,302.324,0.0
53002.0,STARLINK-4121,PAYLOAD,2022-07-14 14:00:01,15.835789300000002,0.0014209,53.2175,344.9265,52.5087,321.0968,-0.0051559,-0.01039756,0.0,0 STARLINK-4121,1 53002U 22076S   22195.58334491 -.01039756  00000-0 -51559-2 0  9993,2 53002  53.2175 344.9265 0014209  52.5087 321.0968 15.83578930  1606,6698.465999999999,90.933,329.849,310.813,0.0
53002.0,STARLINK-4121,PAYLOAD,2022-07-14 22:00:00,15.82809347,0.0010745999999999,53.2172,343.2535,50.5979,63.95,-0.0052603,-0.01019851,0.0,0 STARLINK-4121,1 53002U 22076S   22195.91667824 -.01019851  00000-0 -52603-2 0  9994,2 53002  53.2172 343.2535 0010746  50.5979  63.9500 15.82809347  1304,6700.637,90.977,329.7030000000001,315.302,0.0
53002.0,STARLINK-4121,PAYLOAD,2022-07-15 14:00:01,15.81314707,0.0005767999999999,53.2176,339.91,35.7762,277.9058,-0.0059197,-0.0105891,0.0,0 STARLINK-4121,1 53002U 22076S   22196.58334491 -.01058910  00000-0 -59197-2 0  9993,2 53002  53.2176 339.9100 0005768  35.7762 277.9058 15.81314707  1766,6704.859,91.063,330.591,322.856,0.0
53002.0,STARLINK-4121,PAYLOAD,2022-07-15 22:00:00,15.80539918,0.0003999,53.2171,338.2422,20.0074,31.8812,-0.0059701,-0.01031945,0.0,0 STARLINK-4121,1 53002U 22076S   22196.91667824 -.01031945  00000-0 -59701-2 0  9999,2 53002  53.2171 338.2422 0003999  20.0074  31.8812 15.80539918  1304,6707.05,91.108,331.597,326.233,0.0
53002.0,STARLINK-4121,PAYLOAD,2022-07-16 14:00:01,15.79026118,0.0003352,53.2174,334.9103,6.5719,238.9808,-0.0064595,-0.0105765,0.0,0 STARLINK-4121,1 53002U 22076S   22197.58334491 -.01057650  00000-0 -64595-2 0  9992,2 53002  53.2174 334.9103 0003352   6.5719 238.9808 15.79026118  1928,6711.3359999999975,91.195,335.45,330.951,0.0
53002.0,STARLINK-4121,PAYLOAD,2022-07-16 22:00:00,15.78268661,0.0002964,53.2172,333.2480000000001,6.5228,334.4924,-0.0066992,-0.01059295,0.0,0 STARLINK-4121,1 53002U 22076S   22197.91667824 -.01059295  00000-0 -66992-2 0  9998,2 53002  53.2172 333.2480 0002964   6.5228 334.4924 15.78268661  1302,6713.483,91.239,337.338,333.358,0.0
53002.0,STARLINK-4121,PAYLOAD,2022-07-17 06:00:00,15.7750576,0.0003012,53.2175,331.5848,7.5623,68.0071,-0.0069057,-0.0105538,0.0,0 STARLINK-4121,1 53002U 22076S   22198.25001157 -.01055380  00000-0 -69057-2 0  9993,2 53002  53.2175 331.5848 0003012   7.5623  68.0071 15.77505760  2025,6715.647,91.283,339.535,335.4890000000001,0.0
53002.0,STARLINK-4121,PAYLOAD,2022-07-17 14:00:01,15.76745608,0.0003565,53.2176,329.9272,6.27,162.9369,-0.0071282,-0.0105339,0.0,0 STARLINK-4121,1 53002U 22076S   22198.58334491 -.01053390  00000-0 -71282-2 0  9991,2 53002  53.2176 329.9272 0003565   6.2700 162.9369 15.76745608  1303,6717.805,91.327,342.065,337.276,0.0
53002.0,STARLINK-4121,PAYLOAD,2022-07-17 22:00:00,15.75990862,0.0003446,53.2171,328.2702,4.8399,257.0908,-0.0074271,-0.01060433,0.0,0 STARLINK-4121,1 53002U 22076S   22198.91667824 -.01060433  00000-0 -74271-2 0  9994,2 53002  53.2171 328.2702 0003446   4.8399 257.0908 15.75990862  1302,6719.95,91.371,344.131,339.499,0.0
53002.0,STARLINK-4121,PAYLOAD,2022-07-18 06:00:00,15.75226904,0.0001154,53.2172,326.6129,33.5704,320.1766,-0.0076342,-0.01053399,0.0,0 STARLINK-4121,1 53002U 22076S   22199.25001157 -.01053399  00000-0 -76342-2 0  9997,2 53002  53.2172 326.6129 0001154  33.5704 320.1766 15.75226904  2181,6722.123000000001,91.415,344.76300000000015,343.212,0.0
53002.0,STARLINK-4121,PAYLOAD,2022-07-18 14:00:01,15.744686499999998,0.0001626,53.2173,324.9612,32.0046,52.6411,-0.0079069999999999,-0.0105532,0.0,0 STARLINK-4121,1 53002U 22076S   22199.58334491 -.01055320  00000-0 -79070-2 0  9990,2 53002  53.2173 324.9612 0001626  32.0046  52.6411 15.74468650  1309,6724.281,91.459,347.23900000000015,345.052,0.0
53002.0,STARLINK-4121,PAYLOAD,2022-07-18 22:00:00,15.73581555,0.000171,53.2173,323.3096,30.8429,143.8059,-0.0035744,-0.00482446,0.0,0 STARLINK-4121,1 53002U 22076S   22199.91667824 -.00482446  00000-0 -35744-2 0  9998,2 53002  53.2173 323.3096 0001710  30.8429 143.8059 15.73581555  2281,6726.808000000001,91.511,349.8230000000001,347.522,0.0
53002.0,STARLINK-4121,PAYLOAD,2022-07-19 06:00:00,15.73203153,0.0001131,53.2175,321.6576,73.1251,190.7024,1.1362e-05,9.75e-06,0.0,0 STARLINK-4121,1 53002U 22076S   22200.25001157  .00000975  00000-0  11362-4 0  9992,2 53002  53.2175 321.6576 0001131  73.1251 190.7024 15.73203153  2342,6727.886,91.533,350.51199999999994,348.99,0.0
53002.0,STARLINK-4121,PAYLOAD,2022-07-19 14:00:01,15.73204567,0.0001333,53.2175,320.0099,54.5714,298.1886,-1.9336e-06,-8.91e-06,0.0,0 STARLINK-4121,1 53002U 22076S   22200.58334491 -.00000891  00000-0 -19336-5 0  9997,2 53002  53.2175 320.0099 0001333  54.5714 298.1886 15.73204567  1300,6727.882,91.533,350.644,348.85,0.0
53002.0,STARLINK-4121,PAYLOAD,2022-07-19 22:00:00,15.73205529,0.0001304,53.2171,318.3602,54.2297,27.4644,-1.2468e-05,-2.37e-05,0.0,0 STARLINK-4121,1 53002U 22076S   22200.91667824 -.00002370  00000-0 -12468-4 0  9995,2 53002  53.2171 318.3602 0001304  54.2297  27.4644 15.73205529  1301,6727.879,91.533,350.622,348.867,0.0
53002.0,STARLINK-4121,PAYLOAD,2022-07-20 14:00:01,15.73266863,0.0001472,53.2192,315.0669,44.1817,215.5451,-0.00020543,-0.00029433,0.0,0 STARLINK-4121,1 53002U 22076S   22201.58334491 -.00029433  00000-0 -20543-3 0  9991,2 53002  53.2192 315.0669 0001472  44.1817 215.5451 15.73266863  1307,6727.705,91.529,350.56,348.579,0.0
53002.0,STARLINK-4121,PAYLOAD,2022-07-20 22:00:01,15.73251186,0.0001429,53.2194,313.4171,39.9913,308.7605,-0.0011440999999999,-0.00158547,0.0,0 STARLINK-4121,1 53002U 22076S   22201.91668981 -.00158547  00000-0 -11441-2 0  9997,2 53002  53.2194 313.4171 0001429  39.9913 308.7605 15.73251186  1308,6727.749,91.53,350.576,348.653,0.0
53002.0,STARLINK-4121,PAYLOAD,2022-07-21 08:00:01,15.73112648,0.0001401,53.2197,311.3541,47.7857,142.0201,-1.033e-05,-2.063e-05,0.0,0 STARLINK-4121,1 53002U 22076S   22202.33334491 -.00002063  00000-0 -10330-4 0  9999,2 53002  53.2197 311.3541 0001401  47.7857 142.0201 15.73112648  2663,6728.144,91.538,350.952,349.06699999999995,0.0
53002.0,STARLINK-4121,PAYLOAD,2022-07-21 14:00:01,15.7309957,0.0001664,53.2193,310.1188,42.9748,123.5121,0.00024952,0.00034392,0.0,0 STARLINK-4121,1 53002U 22076S   22202.58335648  .00034392  00000-0  24952-3 0  9993,2 53002  53.2193 310.1188 0001664  42.9748 123.5121 15.73099570  1303,6728.182,91.539,351.166,348.927,0.0
53002.0,STARLINK-4121,PAYLOAD,2022-07-21 22:00:00,15.73144259,0.0001595,53.2187,308.4692,40.5384,214.6993,0.00017196,0.00023524,0.0,0 STARLINK-4121,1 53002U 22076S   22202.91667824  .00023524  00000-0  17196-3 0  9991,2 53002  53.2187 308.4692 0001595  40.5384 214.6993 15.73144259  2764,6728.054,91.536,350.992,348.846,0.0
53002.0,STARLINK-4121,PAYLOAD,2022-07-22 06:00:00,15.73221909,0.0001279,53.219,306.818,38.5943,305.687,0.00034906,0.00048698,0.0,0 STARLINK-4121,1 53002U 22076S   22203.25001157  .00048698  00000-0  34906-3 0  9997,2 53002  53.2190 306.8180 0001279  38.5943 305.6870 15.73221909  2818,6727.833000000001,91.532,350.55800000000005,348.837,0.0
53002.0,STARLINK-4121,PAYLOAD,2022-07-22 12:00:00,15.73285536,0.0001392,53.2191,305.5825,31.4028,289.6023,-0.00099889,-0.00139024,0.0,0 STARLINK-4121,1 53002U 22076S   22203.50001157 -.00139024  00000-0 -99889-3 0  9992,2 53002  53.2191 305.5825 0001392  31.4028 289.6023 15.73285536  2854,6727.651,91.528,350.45300000000015,348.58,0.0
53002.0,STARLINK-4121,PAYLOAD,2022-07-22 22:00:00,15.731992300000002,0.0001551,53.2193,303.5204,29.5579,132.6884,0.00010224,0.00013751,0.0,0 STARLINK-4121,1 53002U 22076S   22203.91667824  .00013751  00000-0  10224-3 0  9998,2 53002  53.2193 303.5204 0001551  29.5579 132.6884 15.73199230  2915,6727.897,91.533,350.806,348.719,0.0
53002.0,STARLINK-4121,PAYLOAD,2022-07-23 14:00:01,15.73148279,0.0001801,53.2194,300.2222,35.1604,305.0098,-0.00014932,-0.00021477,0.0,0 STARLINK-4121,1 53002U 22076S   22204.58335648 -.00021477  00000-0 -14932-3 0  9994,2 53002  53.2194 300.2222 0001801  35.1604 305.0098 15.73148279  1302,6728.043000000002,91.536,351.119,348.696,0.0
53002.0,STARLINK-4121,PAYLOAD,2022-07-23 16:00:00,15.73120505,0.000179,53.2194,299.8104,31.7805,60.5585,0.00049153,0.00068695,0.0,0 STARLINK-4121,1 53002U 22076S   22204.66667824  .00068695  00000-0  49153-3 0  9991,2 53002  53.2194 299.8104 0001790  31.7805  60.5585 15.73120505  3034,6728.121999999999,91.538,351.191,348.782,0.0
